LANDSAT 9               
1 49260U 21088A   24259.47153061  .00001949  00000+0  44254-3 0  9993
2 49260  98.2242 327.9493 0001289  87.1750 272.9596 14.57113487157830
